STARLINK-2088           
1 47371U 21005Y   24306.47329917  .00007046  00000+0  49151-3 0  9996
2 47371  53.0526 115.7546 0001856  83.6807 276.4393 15.06396847208706
STARLINK-2089           
1 47372U 21005Z   24306.80000385  .00022508  00000+0  15237-2 0  9996
2 47372  53.0524 109.6019 0002071  87.4208 272.7018 15.06433518208811
STARLINK-2092           
1 47373U 21005AA  24306.46961691  .00003450  00000+0  25036-3 0  9999
2 47373  53.0526 115.7715 0001544  84.4898 275.6267 15.06401541208708
STARLINK-2093           
1 47374U 21005AB  24306.48804344  .00015481  00000+0  10560-2 0  9995
2 47374  53.0526 115.6552 0001577  85.5242 274.5927 15.06395855208709
STARLINK-2094           
1 47375U 21005AC  24306.49539887 -.00003106  00000+0 -18978-3 0  9999
2 47375  53.0521 115.6518 0001058  67.6430 292.4671 15.06385641208708
STARLINK-2096           
1 47376U 21005AD  24306.49908936  .00002883  00000+0  21237-3 0  9996
2 47376  53.0538 115.6386 0000954  69.5629 290.5462 15.06399930208708
STARLINK-2097           
1 47377U 21005AE  24306.48435551  .00005003  00000+0  35453-3 0  9996
2 47377  53.0518 115.7033 0001569  85.5780 274.5388 15.06402283208701
STARLINK-2098           
1 47378U 21005AF  24306.60967697  .00007292  00000+0  50784-3 0  9998
2 47378  53.0545  75.1372 0001386  94.8430 265.2718 15.06408400209284
STARLINK-2099           
1 47379U 21005AG  24306.54975824  .00012628  00000+0  86500-3 0  9997
2 47379  53.0540  75.3990 0001373  76.6511 283.4631 15.06405106209277
STARLINK-2100           
1 47380U 21005AH  24306.57926555  .00019286  00000+0  13100-2 0  9991
2 47380  53.0529  85.2762 0000892  97.3270 262.7820 15.06401802209145
STARLINK-2101           
1 47381U 21005AJ  24306.59538907  .00005628  00000+0  39642-3 0  9999
2 47381  53.0529  90.2914 0000824  73.4728 286.6352 15.06398278209078
STARLINK-2102           
1 47382U 21005AK  24306.57189586 -.00005177  00000+0 -32902-3 0  9996
2 47382  53.0534  85.3083 0002557 132.5652 227.5553 15.06382577209134
STARLINK-2103           
1 47383U 21005AL  24306.55073620  .00016955  00000+0  11538-2 0  9991
2 47383  53.0539  75.6833 0000694  40.2294 319.8746 15.06419385209274
STARLINK-2104           
1 47384U 21005AM  24306.55717892 -.00005635  00000+0 -35986-3 0  9997
2 47384  53.0528  85.6089 0002079 119.3815 240.7382 15.06379753209130
STARLINK-2105           
1 47385U 21005AN  24306.61982244 -.00003219  00000+0 -19743-3 0  9999
2 47385  53.0535  85.0916 0001229  81.7003 278.4125 15.06380114209146
STARLINK-2106           
1 47386U 21005AP  24306.58294579  .00012787  00000+0  87597-3 0  9993
2 47386  53.0528  85.2586 0001303  87.4268 272.6870 15.06390636209146
STARLINK-2109           
1 47388U 21005AR  24306.18579704  .00007396  00000+0  51489-3 0  9998
2 47388  53.0524 117.0434 0001352  71.7707 288.3429 15.06400699208658
STARLINK-2110           
1 47389U 21005AS  24306.56264722  .00012254  00000+0  84033-3 0  9992
2 47389  53.0529  95.3382 0001159  66.3601 293.7510 15.06389658208991
STARLINK-2111           
1 47390U 21005AT  24306.49172372  .00004511  00000+0  32153-3 0  9998
2 47390  53.0525 115.6680 0001396  82.2352 277.8795 15.06402561208705
STARLINK-2112           
1 47391U 21005AU  24306.56726917  .00004634  00000+0  32971-3 0  9991
2 47391  53.0538  85.3283 0001712  85.2347 274.8837 15.06408778209139
STARLINK-2113           
1 47392U 21005AV  24306.56819966  .00003202  00000+0  23379-3 0  9991
2 47392  53.0539  85.3227 0001392  47.7207 312.3900 15.06398146209137
STARLINK-2114           
1 47393U 21005AW  24306.59451761  .00049235  00000+0  32974-2 0  9996
2 47393  53.0551  60.5628 0001606  75.8959 284.2209 15.06442989209488
STARLINK-2115           
1 47394U 21005AX  24306.59264163 -.00005021  00000+0 -31845-3 0  9999
2 47394  53.0535  80.3779 0001606 110.6133 249.5028 15.06393865209212
STARLINK-2117           
1 47395U 21005AY  24306.67972209  .00019110  00000+0  12991-2 0  9998
2 47395  53.0538  74.8240 0001084  84.5291 275.5822 15.06377849209294
STARLINK-2119           
1 47397U 21005BA  24306.78659727  .00004826  00000+0  34271-3 0  9993
2 47397  53.0523 114.3479 0001297  91.3265 268.7873 15.06395577208755
STARLINK-2120           
1 47398U 21005BB  24306.58334491  .01380650  00000+0  45013-1 0  9997
2 47398  53.0498  84.6028 0001310  80.8080  18.9870 15.28151083209759
STARLINK-2121           
1 47399U 21005BC  24306.59679729  .00001182  00000+0  98279-4 0  9999
2 47399  53.0528  95.4375 0002311  86.5159 273.6094 15.06386983208999
STARLINK-2122           
1 47400U 21005BD  24306.62440802  .00022634  00000+0  15335-2 0  9999
2 47400  53.0529  75.0830 0001499  84.7417 275.3743 15.06400853209282
STARLINK-2123           
1 47401U 21005BE  24306.57557124  .00010667  00000+0  73412-3 0  9994
2 47401  53.0535  85.2941 0002309 126.2540 233.8662 15.06391089209140
STARLINK-2124           
1 47402U 21005BF  24306.59400658  .00010908  00000+0  74985-3 0  9990
2 47402  53.0537  85.2104 0000251  52.5189 307.5823 15.06407873209145
STARLINK-2127           
1 47403U 21005BG  24306.60138708 -.00000774  00000+0 -33130-4 0  9997
2 47403  53.0532  85.1748 0001068  79.9076 280.2033 15.06381498209143
STARLINK-2128           
1 47404U 21005BH  24306.59769634  .00007221  00000+0  50309-3 0  9992
2 47404  53.0536  85.1923 0001018  88.3117 271.7989 15.06403469209146
STARLINK-2130           
1 47405U 21005BJ  24306.18209162  .00010572  00000+0  72724-3 0  9991
2 47405  53.0522 117.0647 0000616 111.0109 249.0946 15.06414171208656
STARLINK-2133           
1 47406U 21005BK  24306.60873854  .00018515  00000+0  12586-2 0  9998
2 47406  53.0520  85.1407 0002011 125.7284 234.3892 15.06400278209146
STARLINK-2134           
1 47407U 21005BL  24306.54979584  .00010904  00000+0  74979-3 0  9998
2 47407  53.0542  85.4081 0001192  62.3326 297.7784 15.06399987209130
STARLINK-2135           
1 47408U 21005BM  24306.58660209  .00016153  00000+0  10994-2 0  9992
2 47408  53.0535  85.2420 0001341  72.4409 287.6726 15.06448820209144
STARLINK-1782           
1 47548U 21009A   24306.58334491  .00375689  00000+0  20098-1 0  9999
2 47548  53.0538  65.0808 0001455  84.7212 318.5442 15.12771999  5856
STARLINK-1806           
1 47549U 21009B   24306.65485580  .00056765  00000+0  37992-2 0  9997
2 47549  53.0549  64.9356 0001835  58.4565 301.6603 15.06399612207235
STARLINK-1909           
1 47550U 21009C   24306.58334491  .00123289  00000+0  66209-2 0  9994
2 47550  53.0532  54.8878 0001274  63.4019  34.4682 15.13963490  5843
STARLINK-1938           
1 47551U 21009D   24306.52860886  .00020588  00000+0  13979-2 0  9995
2 47551  53.0540  75.5026 0001083  82.2092 277.9020 15.06375660206465
STARLINK-1940           
1 47552U 21009E   24306.53320280  .00028196  00000+0  19026-2 0  9998
2 47552  53.0546  65.4820 0001235  69.4319 290.6802 15.06432310206602
STARLINK-1953           
1 47554U 21009G   24306.58334491  .00437306  00000+0  19712-1 0  9992
2 47554  53.0533  84.7522 0001071  85.0252  57.8945 15.18516874  5846
STARLINK-1954           
1 47555U 21009H   24306.58018442  .00006596  00000+0  46122-3 0  9998
2 47555  53.0532  75.2697 0001071  66.2445 293.8656 15.06404540206475
STARLINK-1955           
1 47556U 21009J   24305.75269203  .00002620  00000+0  19470-3 0  9990
2 47556  53.0530  98.9865 0001152  91.9221 268.1900 15.06401606206062
STARLINK-1956           
1 47557U 21009K   24306.58334491  .00755875  00000+0  29783-1 0  9998
2 47557  53.0520  94.6121 0001321  70.3957 289.3655 15.22619920  5848
STARLINK-1957           
1 47558U 21009L   24306.55899638  .00012712  00000+0  87079-3 0  9995
2 47558  53.0535  65.3631 0001181  58.8601 301.2504 15.06399148206600
STARLINK-1958           
1 47559U 21009M   24306.58939786 -.00001731  00000+0 -97367-4 0  9991
2 47559  53.0550  55.2275 0001484  95.9905 264.1253 15.06396691206759
STARLINK-1959           
1 47560U 21009N   24306.58108495 -.00001004  00000+0 -48501-4 0  9997
2 47560  53.0561  55.2519 0001450  93.9977 266.1178 15.06397074206758
STARLINK-1960           
1 47561U 21009P   24306.56913153  .00015496  00000+0  10564-2 0  9995
2 47561  53.0531  75.3204 0001365  99.4628 260.6515 15.06416681206478
STARLINK-1961           
1 47562U 21009Q   24306.91667824  .01391572  00000+0  81233-1 0  9999
2 47562  53.0529  73.7563 0001571  67.6184 300.9183 15.08329800207130
STARLINK-1962           
1 47563U 21009R   24306.53964677  .00022084  00000+0  14963-2 0  9999
2 47563  53.0535  75.4544 0001174  34.2527 325.8538 15.06413470206466
STARLINK-1963           
1 47564U 21009S   24306.60689913  .00018097  00000+0  12291-2 0  9996
2 47564  53.0545  65.1502 0001573  53.9381 306.1754 15.06448596206613
STARLINK-1964           
1 47565U 21009T   24306.60323320  .00011645  00000+0  79893-3 0  9998
2 47565  53.0541  65.1715 0002072  41.0838 319.0307 15.06421914206618
STARLINK-1965           
1 47566U 21009U   24306.59677877  .00031988  00000+0  21571-2 0  9997
2 47566  53.0552  55.1955 0001321  82.9955 277.1184 15.06392075206753
STARLINK-1966           
1 47567U 21009V   24306.56728415  .00011406  00000+0  78330-3 0  9999
2 47567  53.0532  95.3254 0001414 106.6878 253.4266 15.06402630206185
STARLINK-1967           
1 47568U 21009W   24306.59310289  .00007806  00000+0  54231-3 0  9992
2 47568  53.0532  95.2142 0001376  86.4471 273.6675 15.06403780206198
STARLINK-1970           
1 47571U 21009Z   24306.62082326  .00024222  00000+0  12818-2 0  9993
2 47571  53.0550  63.9575 0001117 112.2176 247.8936 15.15332314206633
STARLINK-1971           
1 47572U 21009AA  24306.57742011 -.00000831  00000+0 -36892-4 0  9994
2 47572  53.0555  65.2818 0002219  72.1318 287.9913 15.06389171206611
STARLINK-1975           
1 47573U 21009AB  24306.62165248  .00009557  00000+0  65956-3 0  9996
2 47573  53.0537  65.0817 0001336  77.2010 282.9128 15.06402713206614
